{
  "type": "FeatureCollection",
  "features": [
    {
      "type": "Feature",
      "properties": {
        "norad_id": 33886,
        "name": "IRIDIUM 33 DEB",
        "group": "iridium-33-debris",
        "lat": 51.25041383218532,
        "lon": 68.81806195518811,
        "alt_km": 775.7704063959227,
        "timestamp": "2025-12-19T16:54:44.647137+00:00",
        "meta_object_name": "IRIDIUM 33 DEB",
        "meta_object_id": "1997-051BF",
        "meta_epoch": "2025-12-19T03:37:10.795296",
        "meta_mean_motion": 14.36059291,
        "meta_eccentricity": 0.00128366,
        "meta_inclination": 86.3826,
        "meta_ra_of_asc_node": 64.5303,
        "meta_arg_of_pericenter": 218.5013,
        "meta_mean_anomaly": 211.4365,
        "meta_ephemeris_type": 0,
        "meta_classification_type": "U",
        "meta_norad_cat_id": 33886,
        "meta_element_set_no": 999,
        "meta_rev_at_epoch": 88144,
        "meta_bstar": 0.00015106109,
        "meta_mean_motion_dot": 4.59e-06,
        "meta_mean_motion_ddot": 0,
        "tle_line1": "1 33886U 97051BF  25353.15081939  .00000459  00000+0  15106-3 0  9997",
        "tle_line2": "2 33886  86.3826  64.5303 0012836 218.5013 211.4365 14.36059291881441"
      },
      "geometry": {
        "type": "Point",
        "coordinates": [
          68.81806195518811,
          51.25041383218532
        ]
      }
    },
    {
      "type": "Feature",
      "properties": {
        "norad_id": 33887,
        "name": "IRIDIUM 33 DEB",
        "group": "iridium-33-debris",
        "lat": 16.868513737780248,
        "lon": 1.5136506144880526,
        "alt_km": 771.9455497259241,
        "timestamp": "2025-12-19T16:54:44.647149+00:00",
        "meta_object_name": "IRIDIUM 33 DEB",
        "meta_object_id": "1997-051BG",
        "meta_epoch": "2025-12-19T06:53:26.464704",
        "meta_mean_motion": 14.37226609,
        "meta_eccentricity": 0.00051038,
        "meta_inclination": 86.3041,
        "meta_ra_of_asc_node": 0.5705,
        "meta_arg_of_pericenter": 199.9282,
        "meta_mean_anomaly": 177.9319,
        "meta_ephemeris_type": 0,
        "meta_classification_type": "U",
        "meta_norad_cat_id": 33887,
        "meta_element_set_no": 999,
        "meta_rev_at_epoch": 88259,
        "meta_bstar": 0.00011184202,
        "meta_mean_motion_dot": 3.53e-06,
        "meta_mean_motion_ddot": 0,
        "tle_line1": "1 33887U 97051BG  25353.28711186  .00000353  00000+0  11184-3 0  9991",
        "tle_line2": "2 33887  86.3041   0.5705 0005103 199.9282 177.9319 14.37226609882598"
      },
      "geometry": {
        "type": "Point",
        "coordinates": [
          1.5136506144880526,
          16.868513737780248
        ]
      }
    },
    {
      "type": "Feature",
      "properties": {
        "norad_id": 33953,
        "name": "IRIDIUM 33 DEB",
        "group": "iridium-33-debris",
        "lat": -33.64557779667426,
        "lon": 48.34491438249378,
        "alt_km": 719.7770525173291,
        "timestamp": "2025-12-19T16:54:44.647159+00:00",
        "meta_object_name": "IRIDIUM 33 DEB",
        "meta_object_id": "1997-051BN",
        "meta_epoch": "2025-12-19T03:59:07.956384",
        "meta_mean_motion": 14.55382741,
        "meta_eccentricity": 0.00180317,
        "meta_inclination": 86.3844,
        "meta_ra_of_asc_node": 50.9905,
        "meta_arg_of_pericenter": 83.2549,
        "meta_mean_anomaly": 303.1026,
        "meta_ephemeris_type": 0,
        "meta_classification_type": "U",
        "meta_norad_cat_id": 33953,
        "meta_element_set_no": 999,
        "meta_rev_at_epoch": 88397,
        "meta_bstar": 0.0008151616,
        "meta_mean_motion_dot": 3.566e-05,
        "meta_mean_motion_ddot": 0,
        "tle_line1": "1 33953U 97051BN  25353.16606431  .00003566  00000+0  81516-3 0  9993",
        "tle_line2": "2 33953  86.3844  50.9905 0018031  83.2549 303.1026 14.55382741883970"
      },
      "geometry": {
        "type": "Point",
        "coordinates": [
          48.34491438249378,
          -33.64557779667426
        ]
      }
    },
    {
      "type": "Feature",
      "properties": {
        "norad_id": 33960,
        "name": "IRIDIUM 33 DEB",
        "group": "iridium-33-debris",
        "lat": 17.47258721605733,
        "lon": 105.04763596203661,
        "alt_km": 614.5965830994801,
        "timestamp": "2025-12-19T16:54:44.647170+00:00",
        "meta_object_name": "IRIDIUM 33 DEB",
        "meta_object_id": "1997-051BV",
        "meta_epoch": "2025-12-18T21:04:17.238720",
        "meta_mean_motion": 14.85489781,
        "meta_eccentricity": 0.00074649,
        "meta_inclination": 86.254,
        "meta_ra_of_asc_node": 286.6192,
        "meta_arg_of_pericenter": 52.1098,
        "meta_mean_anomaly": 12.0352,
        "meta_ephemeris_type": 0,
        "meta_classification_type": "U",
        "meta_norad_cat_id": 33960,
        "meta_element_set_no": 999,
        "meta_rev_at_epoch": 88958,
        "meta_bstar": 0.0022083229,
        "meta_mean_motion_dot": 0.0001912,
        "meta_mean_motion_ddot": 0,
        "tle_line1": "1 33960U 97051BV  25352.87797730  .00019120  00000+0  22083-2 0  9997",
        "tle_line2": "2 33960  86.2540 286.6192 0007464  52.1098  12.0352 14.85489781889584"
      },
      "geometry": {
        "type": "Point",
        "coordinates": [
          105.04763596203661,
          17.47258721605733
        ]
      }
    },
    {
      "type": "Feature",
      "properties": {
        "norad_id": 33966,
        "name": "IRIDIUM 33 DEB",
        "group": "iridium-33-debris",
        "lat": -51.28077152186578,
        "lon": 38.52408060967818,
        "alt_km": 738.4845976999322,
        "timestamp": "2025-12-19T16:54:44.647180+00:00",
        "meta_object_name": "IRIDIUM 33 DEB",
        "meta_object_id": "1997-051CB",
        "meta_epoch": "2025-12-18T15:23:51.544320",
        "meta_mean_motion": 14.49616316,
        "meta_eccentricity": 0.00080643,
        "meta_inclination": 86.3918,
        "meta_ra_of_asc_node": 43.4945,
        "meta_arg_of_pericenter": 169.3872,
        "meta_mean_anomaly": 354.7755,
        "meta_ephemeris_type": 0,
        "meta_classification_type": "U",
        "meta_norad_cat_id": 33966,
        "meta_element_set_no": 999,
        "meta_rev_at_epoch": 88527,
        "meta_bstar": 0.00039110994,
        "meta_mean_motion_dot": 1.522e-05,
        "meta_mean_motion_ddot": 0,
        "tle_line1": "1 33966U 97051CB  25352.64156880  .00001522  00000+0  39111-3 0  9991",
        "tle_line2": "2 33966  86.3918  43.4945 0008064 169.3872 354.7755 14.49616316885274"
      },
      "geometry": {
        "type": "Point",
        "coordinates": [
          38.52408060967818,
          -51.28077152186578
        ]
      }
    },
    {
      "type": "Feature",
      "properties": {
        "norad_id": 34071,
        "name": "IRIDIUM 33 DEB",
        "group": "iridium-33-debris",
        "lat": 11.546888295354057,
        "lon": 15.549216503935806,
        "alt_km": 727.1165709094348,
        "timestamp": "2025-12-19T16:54:44.647191+00:00",
        "meta_object_name": "IRIDIUM 33 DEB",
        "meta_object_id": "1997-051CE",
        "meta_epoch": "2025-12-19T03:36:16.848000",
        "meta_mean_motion": 14.49491498,
        "meta_eccentricity": 0.00099478,
        "meta_inclination": 86.3449,
        "meta_ra_of_asc_node": 15.0419,
        "meta_arg_of_pericenter": 90.2014,
        "meta_mean_anomaly": 270.033,
        "meta_ephemeris_type": 0,
        "meta_classification_type": "U",
        "meta_norad_cat_id": 34071,
        "meta_element_set_no": 999,
        "meta_rev_at_epoch": 88427,
        "meta_bstar": 0.00044755385,
        "meta_mean_motion_dot": 1.735e-05,
        "meta_mean_motion_ddot": 0,
        "tle_line1": "1 34071U 97051CE  25353.15019500  .00001735  00000+0  44755-3 0  9999",
        "tle_line2": "2 34071  86.3449  15.0419 0009947  90.2014 270.0330 14.49491498884273"
      },
      "geometry": {
        "type": "Point",
        "coordinates": [
          15.549216503935806,
          11.546888295354057
        ]
      }
    },
    {
      "type": "Feature",
      "properties": {
        "norad_id": 34077,
        "name": "IRIDIUM 33 DEB",
        "group": "iridium-33-debris",
        "lat": -59.424387104048535,
        "lon": -125.41890548226174,
        "alt_km": 689.5353273273349,
        "timestamp": "2025-12-19T16:54:44.647202+00:00",
        "meta_object_name": "IRIDIUM 33 DEB",
        "meta_object_id": "1997-051CL",
        "meta_epoch": "2025-12-19T04:37:08.926752",
        "meta_mean_motion": 14.64901937,
        "meta_eccentricity": 0.00094858,
        "meta_inclination": 86.3856,
        "meta_ra_of_asc_node": 48.6652,
        "meta_arg_of_pericenter": 18.7729,
        "meta_mean_anomaly": 41.3423,
        "meta_ephemeris_type": 0,
        "meta_classification_type": "U",
        "meta_norad_cat_id": 34077,
        "meta_element_set_no": 999,
        "meta_rev_at_epoch": 88427,
        "meta_bstar": 0.00072794541,
        "meta_mean_motion_dot": 3.915e-05,
        "meta_mean_motion_ddot": 0,
        "tle_line1": "1 34077U 97051CL  25353.19246443  .00003915  00000+0  72795-3 0  9994",
        "tle_line2": "2 34077  86.3856  48.6652 0009485  18.7729  41.3423 14.64901937884270"
      },
      "geometry": {
        "type": "Point",
        "coordinates": [
          -125.41890548226174,
          -59.424387104048535
        ]
      }
    }
  ]
}